address,bank_name,sell_course,buy_course,lat,lon
"Минск, пр-т Победителей, 65 (ТЦ «Замок»)",БНБ-Банк,2.9,2.907,53.926345885399,27.518212789688
"Минск, пр-т Дзержинского, 104 (ТЦ «Титан»)",БНБ-Банк,2.809,2.907,53.860293567286,27.478949183852
"Минск, пр-т Независимости, 87а (площадь Калинина)",БНБ-Банк,2.809,2.907,53.923747070641,27.605639559524
"Минск, ул. Притыцкого, 29 (ТЦ «Тивали»)",БНБ-Банк,2.809,2.907,53.908080068822,27.484298965637
"Минск, пр-т Независимости, 173 (БЦ Futuris)",БНБ-Банк,2.809,2.907,53.941246,27.667212
"г. Минск, ул. Бобруйская, 6-10",БНБ-Банк,2.809,2.907,53.890245,27.554384
"Минский район, Боровлянский с/с, 74/1, район д. Боровая",БНБ-Банк,2.8905,2.907,53.964443,27.624021
"г. Минск, ул. Шаранговича, 21",БНБ-Банк,2.8905,2.907,53.88496,27.451042
"г. Минск, ул. Маяковского, 6",БНБ-Банк,2.8905,2.907,53.884662,27.56573
"Минск, ул. Рудобельская,3",БНБ-Банк,2.8905,2.907,53.861235,27.638305
"г.Минск, Независимости пр., 154",БСБ Банк,2.895,2.907,53.936303,27.67323
"г.Минск, Денисовская ул., 8",БСБ Банк,2.89,2.907,53.872121,27.57278
"Минск и Минский р-н, г. Минск, ул. Денисовская, д. 8А",СтатусБанк,2.895,2.907,53.871006667556,27.571597495196
"Минск и Минский р-н, Минская обл., Минский район, Боровлянский с/с, 74A, район д. Боровая",СтатусБанк,2.895,2.907,53.964257201888,27.624696331462
"Минск и Минский р-н, г. Минск, ул. Денисовская, д. 8 ТЦ ""Корона-сити""",СтатусБанк,2.896,2.907,53.87183396305,27.573188911131
"Минск и Минский р-н, г. Минск, пр. Независимости, 154",СтатусБанк,2.895,2.907,53.936242242177,27.67325231314
"Минск и Минский р-н, г. Минск, ул.Притыцкого, 77",СтатусБанк,2.893,2.907,53.90572266052,27.458047042538
"Минск и Минский р-н, г. Минск, ул. Щорса,11",СтатусБанк,2.893,2.907,53.885703,27.514966
"Минск и Минский р-н, г. Минск, ул. Казимировская, 6",СтатусБанк,2.896,2.907,53.917397930647,27.429621903898
"Минск и Минский р-н, г. Минск, пр. Независимости, 177-6. Секция 2",СтатусБанк,2.895,2.907,53.946003597018,27.682899106418
"Минск и Минский р-н, г. Минск, пр. Партизанский, 85",СтатусБанк,2.895,2.907,53.874691185582,27.632101862436
"Минск и Минский р-н, Минск, пр. Партизанский, 150А",СтатусБанк,2.893,2.907,53.860325354343,27.673987238411
"г.Минск, Победителей пр., 65",БСБ Банк,2.9,2.908,53.926449,27.518349
"г. Минск, ул. Уманская, 54 (ТЦ ""Глобо"")",МТБанк,2.892,2.908,53.874918,27.498212
"г. Минск, ул. Уманская, 54, ТЦ «Глобо», 1 этаж",МТБанк,2.892,2.908,53.874532,27.498716
"г. Минск, ул. Бобруйская, 6 (ТЦ ""Galileo"", 3-й этаж)",МТБанк,2.892,2.908,53.89020145635,27.554396457999
"г. Минск, пр-т Победителей, 65",МТБанк,2.892,2.908,53.926266,27.517472
"Минский район, пересечение Логойского тракта и МКАД (ТРЦ «EXPOBEL»)",МТБанк,2.892,2.908,53.964443,27.624021
"г. Минск, ул. Кальварийская, 24",МТБанк,2.892,2.908,53.908039,27.527327
"г. Минск, Минский район, Боровлянский сельсовет, 97 (ТЦ ""ОМА"")",МТБанк,2.892,2.908,53.967399,27.625198
"г. Минск, ул. Казимировская, 6 (магазин Евроопт)",МТБанк,2.892,2.908,53.917538,27.429321
"г. Минск, ул. Уборевича, 176",МТБанк,2.892,2.908,53.835584,27.606082
"г. Минск, пр-т Партизанский, 182 (GREEN)",МТБанк,2.892,2.908,53.84894,27.699067
"г. Минск, ул. Леонида Левина, 8",МТБанк,2.892,2.908,53.866476,27.529689
"г. Минск, пр-т Партизанский 79 (ТЦ Prizma)",МТБанк,2.892,2.908,53.876573,27.625863
"г. Минск, ул. Бобруйская, 6 (ТРЦ Galileo)",Банк РРБ,2.895,2.908,53.890128,27.554689
"г. Минск, деревня Цна, Папернянский сельсовет, Минский район, ул. Юбилейная улица, 8",Банк РРБ,2.895,2.908,53.971657,27.592814
"г. Минск, ул. Коммунистическая, 49, пом.1 (вход со стороны гостиницы ""Беларусь"")",Банк Дабрабыт,2.895,2.909,53.9142,27.5523
"г.Минск, Победителей пр., 23/4",БСБ Банк,2.89,2.909,53.91103,27.540587
"г.Минск, Свободы пл., 4",БСБ Банк,2.895,2.909,53.903868,27.557295
"г.Минск, Купалы ул., 25",БСБ Банк,2.895,2.909,53.905529,27.561406
"г.Минск, Свободы пл., 23",БСБ Банк,2.895,2.909,53.903868,27.557295
"г. Минск, ул. Красная, 7",Альфа Банк,2.88,2.91,53.912553333894,27.571371110625
"г.Минск, Дзержинского пр, 80",БСБ Банк,2.9,2.91,53.86925,27.489949
"г.Минск, Шафарнянская ул., 11",БСБ Банк,2.895,2.91,53.946666,27.682173
"г.Минск, Матусевича ул., 72",БСБ Банк,2.895,2.91,53.918342,27.450386
"г.Минск, Сеницкий сельсовет, 84,",БСБ Банк,2.895,2.91,53.835489,27.505174
"Минск и Минский р-н, г. Минск, ул. Тимирязева, д.123, корп.1.",СтатусБанк,2.89,2.91,53.933444,27.455237
"Минск и Минский р-н, г. Минск, Долгиновский тракт, д.178",СтатусБанк,2.89,2.91,53.964215,27.535861
"г. Минск, ул. Налибокская, 1-1 (ТЦ Караван)",Банк РРБ,2.885,2.91,53.926499,27.440172
"г. Минск, ул. Тимирязева, 74 А (ТЦ Palazzo)",Банк РРБ,2.885,2.91,53.927029,27.509846
"г. Минск, пр-т Независимости, 154 (ТЦ Корона)",Банк РРБ,2.89,2.91,53.936418,27.67324
"г. Минск, ул. Притыцкого, 156-32 (ТЦ Green City)",Банк РРБ,2.89,2.91,53.90867,27.43233
ул. Кропоткина 44,Технобанк,2.89,2.91,53.9165649943,27.5572592454
"г. Минск, ул. Володарского, 4",Технобанк,2.89,2.91,53.8982465234,27.549922746
"г. Минск, ул. Руссиянова, 8",Технобанк,2.89,2.91,53.9430013296,27.687411411
"г. Минск, пр.Независимости, 117а, (вход со стороны ул.Филимонова)",Технобанк,2.89,2.91,53.9318911887,27.637019584
"г. Минск, ул. Маяковского,6",Технобанк,2.89,2.91,53.884753825866,27.565779364918
"г. Минск, ул. Мельникайте, 8",Технобанк,2.89,2.91,53.9082470096,27.5441675595
"г. Минск, пр. Победителей, 65-1, ТРЦ «Замок»",Технобанк,2.89,2.91,53.9267705851,27.5178023314
"г. Минск, ул. Притыцкого, 156, ТРЦ «Green City»",Технобанк,2.89,2.91,53.9088802219,27.4326187252
"г. Минск, ул.П.Мстиславца, 11, ТРЦ «Dana Mall»",Технобанк,2.885,2.91,53.9341762659,27.6518281333
ул. П.Мстиславца 11,Технобанк,2.885,2.91,53.9334687165,27.65238767
"ул. Бобруйская 6 ТЦ ""Галилео""",Технобанк,2.885,2.91,53.8904865167,27.5537759587
"г. Минск, пр-т Победителей, 9",Технобанк,2.885,2.91,53.9085257452,27.5484698228
"Минский район, д. Копище, ул. Леонардо да Винчи, 3 (Новая Боровая)",Технобанк,2.885,2.91,53.9519026433,27.6645249696
ул. Уборевича 176,Технобанк,2.885,2.91,53.835465668881,27.605729532758
"Минский район, д. Копище, ул. Авиационная, 33 (Новая Боровая)",Технобанк,2.885,2.91,53.960710660744,27.660962996028
"Минский район, Боровлянский с/с, 74/1, район д. Боровая (ТЦ «Экспобел»)",Технобанк,2.89,2.91,53.964046245997,27.624229877598
"Минский р-н, д. Таборы, рынок «Новый Лебяжий»",Технобанк,2.885,2.91,53.904282847002,27.336878549856
"г. Минск, ул. Маяковского,6",Технобанк,2.89,2.91,53.884753825866,27.565779364918
г.Минск Глебки 5 (1 этаж),Технобанк,2.885,2.91,53.9090990667,27.4703613142
"ул. Налибокская 1 ТЦ ""Караван""",Технобанк,2.885,2.91,53.9265261516,27.4403714051
ул.Кропоткина 44,Технобанк,2.89,2.91,53.9165649943,27.5572592454
"ул.Тимирязева, 74А",Технобанк,2.885,2.91,53.9269854933,27.5095605885
"г. Минск, пр. Дзержинского, 104 - 110 (ТРЦ Титан)",Банк РРБ,2.887,2.912,53.861872,27.480399
"г. Минск, ул. Московская, 14",Банк ВТБ (Беларусь),2.89,2.914,53.888775560275,27.538564865745
"г. Минск, ул. Гикало, 3",Банк ВТБ (Беларусь),2.89,2.914,53.916078090111,27.587845944404
"г. Минск, пр-т Независимости, 93",Банк ВТБ (Беларусь),2.89,2.914,53.924411007886,27.612656482803
"г. Минск, ул. Николы Теслы, д. 20",Банк ВТБ (Беларусь),2.89,2.914,53.868388066341,27.546016175266
"г. Минск, ул. Притыцкого, 91",Банк ВТБ (Беларусь),2.89,2.914,53.905660290015,27.441811514409
"г. Минск, пр-т Независимости, 202",Банк ВТБ (Беларусь),2.89,2.914,53.952324328667,27.715100874762
"г. Минск, пр-т Независимости, 168/2",Банк ВТБ (Беларусь),2.89,2.914,53.945203670705,27.690330525131
"г. Минск, пр-т Дзержинского, 119",Банк ВТБ (Беларусь),2.89,2.914,53.851097283387,27.476675509583
"г. Минск, ул. Притыцкого, 156-32 в ТЦ GreenCity",Банк ВТБ (Беларусь),2.89,2.914,53.908700623941,27.430503901447
"г. Минск, ул. Притыцкого, д.156-32 (ТЦ GreenCity)",Банк ВТБ (Беларусь),2.89,2.914,53.909524147734,27.431319292988
"Минский р-н, Боровлянский с/с, д. 74/1, район д. Боровая (ТРЦ""Экспобел"")",Банк ВТБ (Беларусь),2.89,2.914,53.963160266557,27.624038220901
"г.Минск, Тимирязева ул., 67",БСБ Банк,2.9,2.914,53.925193,27.50835
"г.Минск, П. Глебки ул., 5",БСБ Банк,2.9,2.914,53.908576,27.469576
"г.Минск, П. Глебки ул., 5",БСБ Банк,2.9,2.914,53.908576,27.469576
"г. Минск, ул. Притыцкого, 93 (магазин Алми)",Банк РРБ,2.895,2.914,53.905917,27.439849
"г. Минск, ул. Братская, 18 (ТОЦ Авиа Молл)",Банк РРБ,2.895,2.914,53.867023,27.548563
"г. Минск, пр. Дзержинского, 1Е",Альфа Банк,2.88,2.915,53.892232895921,27.529246703705
"г. Минск, ул. Красноармейская, 36,Вход по паспорту",Альфа Банк,2.88,2.915,53.89196368324,27.579044644843
"г. Минск, Минский р-н, д.Цна, ул.Юбилейная, 4,(BMW)",Альфа Банк,2.88,2.915,53.972269472729,27.58902965575
"г. Минск, пр. Независимости, 198",Альфа Банк,2.88,2.915,53.951294745798,27.710822250342
"г. Минск, ул. Нестерова, 49",Альфа Банк,2.88,2.915,53.883782635365,27.681458362333
"г. Минск, ул. Космонавтов, 28",Альфа Банк,2.88,2.915,53.849923996002,27.455681368477
"г. Минск, Некрасова, 3а",Альфа Банк,2.88,2.915,53.929999558713,27.595662500243
"г. Минск, ул. Голубева, 24а",Альфа Банк,2.88,2.915,53.867843319384,27.465003640726
"г. Минск, ул.Скрипникова, 15а",Альфа Банк,2.88,2.915,53.891390596592,27.420875938013
"г. Минск, пр. Победителей, 65",Альфа Банк,2.88,2.915,53.926723178148,27.516763961452
"г. Минск, ул. Рафиева, 56",Альфа Банк,2.88,2.915,53.864463411708,27.448137910441
"г. Минск, ул. Жиновича.7",Альфа Банк,2.88,2.915,53.920656342866,27.448223741129
"г. Минск, ул. Хмаринская, д.8,(Hyundai)",Альфа Банк,2.88,2.915,53.970690581188,27.577328633226
"г. Минск, ул. Козлова, 2",Альфа Банк,2.88,2.915,53.909922644798,27.578290893724
"г. Минск, ул. Денисовская,8",Альфа Банк,2.88,2.915,53.871826299126,27.572448501008
"г. Минск, ул. И. Гошкевича 3",Альфа Банк,2.88,2.915,53.839930928142,27.568817437736
"г. Минск, ул. Камайская,3,(Джили)",Альфа Банк,2.88,2.915,53.932392648481,27.464771920107
"г. Минск, ул. Притыцкого, д. 156/1-1",Альфа Банк,2.88,2.915,53.908819,27.430749
"г. Минск, ул. В. Хоружей, 6 Б (Торговый центр ""Зеркало"", 1-ый этаж, отдельный вход со стороны ТЦ ""Импульс"", рядом станция метро ""Пл.Я.Коласа"")",Банк Дабрабыт,2.89,2.915,53.9188,27.58
"г. Минск, пр. Партизанский, 46",Банк Дабрабыт,2.89,2.915,53.8753,27.6237
"г. Минск, ул. Лобанка, 22 (ст. метро Каменная Горка)",Банк Дабрабыт,2.89,2.915,53.901655827999,27.434233739428
"г. Минск, пр. Независимости, 185",Банк Дабрабыт,2.89,2.915,53.9476,27.6929
"г. Минск, ул. Есенина, 30 (на пересечении с ул. Космонавтов)",Банк Дабрабыт,2.89,2.915,53.8517,27.456
"г. Минск, ул. Романовская Слобода, 5",Белгазпромбанк,2.89,2.915,53.902478,27.54637
"г. Минск, ул. Богдановича, 116",Белгазпромбанк,2.89,2.915,53.934958545438,27.582307469677
"г. Минск, ул. Маяковского,15",Белгазпромбанк,2.89,2.915,53.882473,27.568736
"г. Минск, пр.Независимости, 117А (ТРЦ «Александров Пассаж»)",Белгазпромбанк,2.89,2.915,53.931402806001,27.63745460218
"г. Минск, ул. Куприянова, 2 «А» (Автосалон «Шкода»)",Белгазпромбанк,2.89,2.915,53.9003,27.5227
"г. Минск, ул. Тимирязева, 70",Белгазпромбанк,2.89,2.915,53.923630307101,27.512753110114
"г. Минск, пр-т Независимости, 6",Белгазпромбанк,2.89,2.915,53.894612,27.548096
"г. Минск, пр-т Дзержинского, 104, БЦ «Титан» (башня C)",Белгазпромбанк,2.89,2.915,53.861872,27.480399
"г. Минск, пр. Машерова, 29",Белинвестбанк,2.885,2.915,53.916782,27.555758
"г. Минск, пр. Независимости, 164-8Н",Белинвестбанк,2.885,2.915,53.943944,27.686499
"г. Минск, ул. Коржа, 11а",Белинвестбанк,2.885,2.915,53.895374,27.519776
"г. Минск, ул. Бобруйская, 9",Белинвестбанк,2.885,2.915,53.892405,27.546924
"г. Минск, ул. Я.Чечота, 11-196а",Белинвестбанк,2.885,2.915,53.849429,27.480569
"г. Минск, пр. Пушкина, 81-2н",Белинвестбанк,2.885,2.915,53.9212,27.4985
"г. Минск, пр. Независимости, 21 (ОАО ""Гум"")",Белинвестбанк,2.885,2.915,53.9005,27.558
"г. Минск, ул. Жилуновича, 4 (Универмаг ""Беларусь"" 2 этаж)",Белинвестбанк,2.885,2.915,53.8765,27.6303
"г. Минск, ул. Карла Маркса, 33-4Н, 8Н (вход со стороны ул.Ленина)",Белинвестбанк,2.885,2.915,53.899259160549,27.559845856147
"г. Минск, ул. Коллекторная, 11-2",Белинвестбанк,2.885,2.915,53.900321,27.542293
"г. Минск, ул. Могилевская, 5-14",Белинвестбанк,2.885,2.915,53.884206,27.539786
"г. Минск, ул.Богдановича,153",Белинвестбанк,2.885,2.915,53.935352,27.579815
"г. Минск, ул.Маяковского, 11 - 196",Белинвестбанк,2.885,2.915,53.883389,27.569098
"г. Минск, ул. Плеханова, 91",Белинвестбанк,2.885,2.915,53.861278,27.603755
"г. Минск, ул. Притыцкого, 93 (ТЦ ""Алми"")",Белинвестбанк,2.885,2.915,53.905923,27.439903
"г. Минск, пр. Независимости, 54 (на лестничной площадке 3-го этажа универмага ""ЦУМ"")",Белинвестбанк,2.885,2.915,53.916313,27.585861
"г. Минск, пр-т Дзержинского, 100 (ТЦ ""Кирмаш"")",Белинвестбанк,2.885,2.915,53.863593,27.482474
"г. Минск, пр-т Дзержинского, 19-1555",Белинвестбанк,2.885,2.915,53.886154,27.516098
"г. Минск, пр. Партизанский, 85-48",Белинвестбанк,2.885,2.915,53.874753,27.631998
"г. Минск, ул. Притыцкого, 156/1-1 (ТЦ ""Green City"")",Белинвестбанк,2.885,2.915,53.908304,27.433749
"г. Минск, пр. Победителей, 65 (ТРЦ ""Замок"")",Белинвестбанк,2.887,2.915,53.926266,27.517472
"г.Минск, Газеты ""Звязда"" пр., 47",БСБ Банк,2.89,2.915,53.861115,27.465505
"г.Минск, Логойский тракт, 15/4",БСБ Банк,2.895,2.915,53.944215,27.609808
"г.Минск, Логойский тракт, 15/4",БСБ Банк,2.895,2.915,53.944241,27.609914
"г. Минск, ул. В. Хоружей, 20-2",Нео Банк Азия,2.9,2.915,53.92192,27.567184
"г. Минск, ул. В. Хоружей, 20-2",Нео Банк Азия,2.9,2.915,53.92192,27.567184
"г. Минск, ул. В. Хоружей, 20-2",Нео Банк Азия,2.9,2.915,53.92192,27.567184
"г. Минск, ул. В. Хоружей, 20-2",Нео Банк Азия,2.9,2.915,53.92192,27.567184
"Минск и Минский р-н, г. Минск, пр. Дзержинского, 92",СтатусБанк,2.896,2.915,53.866229547177,27.486484735021
"г. Минск, ул. Кунцевщина, 2а",МТБанк,2.875,2.915,53.907604376745,27.436975907073
"г. Минск, ул. Притыцкого, 101",МТБанк,2.875,2.915,53.905567,27.433875
"г. Минск, ул. Шаранговича, 22 (работа временно приостановлена с 01.08.22)",МТБанк,2.88,2.915,53.88609,27.44779
"г. Минск, пр-т Независимости, 11/2 (Обменный пункт в Казино. Только для клиентов Казино)",МТБанк,2.88,2.915,53.8970508528,27.551077047955
"г. Минск, пр-т Рокоссовского, 80 (микрорайон «Серебрянка»)",МТБанк,2.88,2.915,53.863189,27.603813
"г. Минск, пр-т Партизанский 79 (ТЦ “Prizma”)",МТБанк,2.875,2.915,53.874579767577,27.630109229497
"г. Минск, пр-т Независимости, 202-3, салон KIA",МТБанк,2.88,2.915,53.9532089657,27.717830415672
"г. Минск, пр-т Партизанский, 150а (ТЦ МОМО)",МТБанк,2.88,2.915,53.859478223834,27.674203890213
"г. Минск, ул. Петра Мстиславца, 11 (ТРЦ ""DANA MALL"", 2 этаж, около магазина ZARA)",МТБанк,2.88,2.915,53.933608,27.652157
"г. Минск, ул. Свислочская, 9 (Обменный пункт в Автоцентре)",МТБанк,2.88,2.915,53.849881555131,27.647897887872
"г. Минск, ул. Притыцкого, 26",МТБанк,2.875,2.915,53.910956,27.49753
"г. Минск, ул. Аэродромная, 125 (Обменный пункт в Автоцентре)",МТБанк,2.88,2.915,53.873287369444,27.558518584656
"г. Минск, пр-т Дзержинского, 122",МТБанк,2.88,2.915,53.851429945036,27.474332076057
"Минский р-н, д. Боровая, 2 (Обменный пункт в Автоцентре)",МТБанк,2.88,2.915,53.962144,27.629151
"г. Минск, ул. Толстого, 10, БЦ «Titul»",МТБанк,2.88,2.915,53.888380274332,27.544253084656
"г. Минск, пр-т Дзержинского, 134 (Обменный пункт в Автоцентре)",МТБанк,2.88,2.915,53.843473501969,27.466130847885
"г. Минск, ул. Мележа, 1 (БЦ Парус)",МТБанк,2.875,2.915,53.939710883198,27.601466136851
"г. Минск, ул. Янки Лучины, 7",МТБанк,2.88,2.915,53.840003,27.57124
"г. Минск, пр-т Независимости 202/1 (в Автоцентре)",МТБанк,2.88,2.915,53.953281,27.717186
"г. Минск, пр-т Независимости, 202/2, Лексус",МТБанк,2.88,2.915,53.9532,27.7172
"г. Минск, ул. Каменногорская, 11 (Обменный пункт в Автоцентре)",МТБанк,2.88,2.915,53.918577,27.415657
"г. Минск, ул. Лещинского, 4 (автоцентр)",МТБанк,2.88,2.915,53.908384,27.454249
"г. Минск, ул. Бобруйская, 15",МТБанк,2.88,2.915,53.891598,27.552758
"г. Минск, ул. З. Бядули, 11",МТБанк,2.88,2.915,53.90379,27.585681
"г. Минск, ул. Кульман, 1/3-3 (только для клиентов казино)",МТБанк,2.875,2.915,53.916542,27.582861
г. Минск улица Шаранговича 22/1,МТБанк,2.88,2.915,53.886377,27.449021
"г. Минск, ул. Притыцкого, 79 (Обслуживание юридических лиц и ИП)",МТБанк,2.88,2.915,53.905907,27.456863
г. Минск улица Братская 16,МТБанк,2.88,2.915,53.868557,27.550297
"г. Минск, пр-т Победителей 3",МТБанк,2.88,2.915,53.906432,27.551024
"г. Минск, улица Киселёва 61А",Паритетбанк,2.895,2.915,53.915008,27.560412
"г. Минск, улица Гамарника 9к4",Паритетбанк,2.895,2.915,53.955501,27.611337
"г. Минск, Бобруйская 15",Паритетбанк,2.895,2.915,53.891473,27.553198
"г. Минск, Боровлянский сельсовет 74",Паритетбанк,2.895,2.915,53.964287,27.623771
"г. Минск, улица Притыцкого 97 - 463",Паритетбанк,2.895,2.915,53.90595,27.43655
"г. Минск, пр-т Мира 4",Паритетбанк,2.895,2.915,53.870304,27.547108
"г. Минск, улица Братская 18",Паритетбанк,2.895,2.915,53.867179,27.548504
"г. Минск, улица Братская 18",Паритетбанк,2.895,2.915,53.867199,27.548554
"г. Минск, ул. Денисовская, 8-2 (ТЦ Корона-Сити)",Банк РРБ,2.9,2.915,53.871594,27.572799
"г. Минск, Денисовская, 8-2 (ТЦ Корона-Сити)",Банк РРБ,2.9,2.915,53.871594,27.572799
"г. Минск, ул. И. Гошкевича, 3-2 (ТЦ Евроопт)",Банк РРБ,2.88,2.915,53.840143,27.568784
"г. Минск, ул. Нестерова, 49 (ТЦ Евроопт)",Банк РРБ,2.88,2.915,53.883601,27.681424
"г. Минск, ул. Толстого, 1 (ТЦ Minsk City Mall)",Банк РРБ,2.88,2.915,53.889529,27.54523
"г. Минск, ул. Горецкого, 2 (ТЦ Гиппо)",Банк РРБ,2.88,2.915,53.876515,27.46608
"г. Минск, ул. Кальварийская, 24 (ТЦ Корона)",Банк РРБ,2.89,2.915,53.908039,27.527327
"г. Минск, ул. Петра Глебки, 5-1 (ТЦ Скала), 0 этаж",Банк РРБ,2.895,2.915,53.908851,27.470185
"г. Минск, Сухаревская, 16 (ТЦ Праздник)",Банк РРБ,2.87,2.915,53.885979,27.438744
"г. Минск, ул. Макаёнка, 11 (ТЦ Виталюр)",Банк РРБ,2.87,2.915,53.92134,27.628244
"г. Минск, пр. Дзержинского, 3б (ТЦ Океан)",Банк РРБ,2.87,2.915,53.891614,27.527435
"г. Минск, ул. Петра Глебки, 5-1 (ТЦ Скала), 1 этаж",Банк РРБ,2.895,2.915,53.908851,27.470185
"г. Минск, пр. Жукова, 44 (ТЦ OUTLETO)",Банк РРБ,2.88,2.915,53.87668,27.517894
"ул. Немига, 3, ТЦ ""Немига-3"", 1 этаж",Технобанк,2.88,2.915,53.9041879191,27.5526601276
Игуменский тракт 30,Технобанк,2.88,2.915,53.8404403798,27.5728102548
"пр. Независимости 54 Ун-сам ""ЦУМ""",Технобанк,2.88,2.915,53.9163297019,27.5859387238
ул. Сухаревская 31,Технобанк,2.88,2.915,53.887153566599,27.423038912337
"пр. Победителей 84 ТРЦ ""Арена Сити""",Технобанк,2.88,2.915,53.937986073834,27.488333136473
"ул. Кульман, 21б",Технобанк,2.88,2.915,53.9272427953,27.5679240344
"г.Минск, пр. Партизанский, 182 (ТЦ «Green»)",Технобанк,2.88,2.915,53.849086579613,27.699396252639
"г. Минск, ул. Бабушкина, 39, 2 этаж",Технобанк,2.88,2.915,53.800848764952,27.593450632021
"г.Минск, пр. Партизанский, 150а (ТЦ «МОМО», 1 этаж)",Технобанк,2.88,2.915,53.859912328229,27.673900455243
"г. Минск ул. Ленина 27 ТЦ ""Ленинград""",Технобанк,2.88,2.915,53.889146852,27.5809274974
"г.Минск ул.Немига 3 ТЦ ""Немига-3""",Технобанк,2.88,2.915,53.9041087247,27.5525313816
Минск ул.Мястровская 27,Технобанк,2.88,2.915,53.9384251129,27.4657934746
"г. Минск Жукова 44 ТЦ ""Outleto""",Технобанк,2.88,2.915,53.8766856154,27.5179056383
"г. Минск ул. Воронянского, 19, ун-сам ""Чкаловский""",Технобанк,2.88,2.915,53.8781726702,27.548249286
г. Минск пр. Пушкина 37,Технобанк,2.88,2.915,53.9071349183,27.4944664761
"г.Минск ул. Любимова 17 Ун-сам ""Брест""",Технобанк,2.88,2.915,53.8592970462,27.4625657447
"г. Минск ул. Голодеда 15 Ун-сам ""Соседи""",Технобанк,2.88,2.915,53.8394583901,27.6406872626
"г. Минск ул. Громова 20 Ун-сам ""Соседи""",Технобанк,2.88,2.915,53.8538554683,27.4446248479
"пр. Независимости 54 Ун-сам ""ЦУМ""",Технобанк,2.88,2.915,53.9165770154,27.586211416
"пр. Победителей 101/12 ТД ""Рамонак""",Технобанк,2.88,2.915,53.9349349703,27.4982461534
"Минская обл., Минский р-н, Боровлянский с/с, д. Боровая, 7А, ""ГИППО""",Технобанк,2.88,2.915,53.9653552082,27.644856127
9 км Московского шоссе,Технобанк,2.88,2.915,53.9636439324,27.7443256812
"Логойский тракт 46 АЗС ""UC""",Технобанк,2.88,2.915,53.9596217666,27.6293099656
"ул. В.Хоружей 1А ТЦ ""Силуэт""",Технобанк,2.88,2.915,53.9167422365,27.5800970197
"ул. Притыцкого 29 Ун-сам ""Евроопт""",Технобанк,2.88,2.915,53.9077712414,27.4845949597
"Минская обл., Минский р-н, Боровлянский с/с, д. Боровая, 7А, ""ГИППО""",Технобанк,2.88,2.915,53.9656632897,27.6454291908
"пр. Газеты Правда 20 Ун-м ""Виталюр""",Технобанк,2.88,2.915,53.868209111394,27.484146852834
ул. Каролинская 5а,Технобанк,2.88,2.915,53.8504698015,27.4845852844
"ул. Свердлова, 11",Технобанк,2.88,2.915,53.893224542295,27.55614699445
"ул. Толстого, 1",Технобанк,2.88,2.915,53.889689985717,27.545923015852
"г. Минск, ул. Тимирязева, 65А",ТК Банк,2.88,2.915,53.923587,27.510075
"г. Минск, ул. Тимирязева, д. 65А (второй этаж)",ТК Банк,2.88,2.915,53.9236,27.510258
"г. Минск, ул. Сторожовская,8",Банк Решение,2.895,2.915,53.912905944393,27.555604932541
"г. Минск, ул. Игнатенко, 11",Банк Решение,2.895,2.915,53.918461,27.52429
"г. Минск, ул. Бурдейного, 11 (магазин ЕврооптSuper)",Банк РРБ,2.892,2.916,53.903615,27.456171
"г. Минск, пр-т. Победителей, 65 (ТЦ Замок)",Банк РРБ,2.892,2.916,53.926266,27.517472
"г. Минск, Ул. Сурганова, 50 (ТЦ «РИГА»)",Банк Дабрабыт,2.88,2.92,53.9289,27.5875
"г. Минск, ул. Владислава Голубка, 2 (ТЦ ""Бонус"")",Банк Дабрабыт,2.88,2.92,53.926,27.4442
"г. Минск, пр. Дзержинского, 106 (ТЦ «Магнит»)",Банк Дабрабыт,2.88,2.92,53.858474,27.476761
"г. Минск, пр. Жукова, 3",Белагропромбанк,2.903,2.92,53.893548,27.499781
"г.Минск, Русcиянова ул., 7",БСБ Банк,2.88,2.92,53.938617,27.686257
"г.Минск, В.Хоружей ул., 2",БСБ Банк,2.88,2.92,53.916965,27.581461
"г.Минск, Меньковский тракт, 2",БСБ Банк,2.88,2.92,53.855043,27.42119
"г.Минск, Меньковский тракт, 2",БСБ Банк,2.88,2.92,53.855043,27.42119
"г.Минск, Меньковский тракт, 2",БСБ Банк,2.88,2.92,53.855043,27.42119
"г.Минск, Независимости пр.,23",БСБ Банк,2.88,2.92,53.901309,27.559775
"г.Минск, пр-т Рокоссовского, 2",БСБ Банк,2.88,2.92,53.874963,27.595686
"г.Минск, пр-т Рокоссовского, 2",БСБ Банк,2.88,2.92,53.874963,27.595686
"г.Минск, ул.Уманская, 54",БСБ Банк,2.88,2.92,53.874981,27.498221
"г.Минск, Мележа ул., 5",БСБ Банк,2.88,2.92,53.940517,27.597034
"г.Минск, пр-т Дзержинского, 104",БСБ Банк,2.88,2.92,53.861872,27.480399
"г. Минск, Привокзальная пл, 3 (Железнодорожный вокзал, 3 этаж)",МТБанк,2.87,2.92,53.890772,27.550982
"г. Минск, Есенина, 76",МТБанк,2.87,2.92,53.861645,27.444575
"г. Минск, ул. Бурдейного, 6 (павильон №19)",МТБанк,2.87,2.92,53.905122,27.455131
"г. Минск, пр-т Победителей, 9 (Обменный пункт в Казино. Только для клиентов Казино)",МТБанк,2.87,2.92,53.90857,27.548608
"г. Минск, ул. Кирова, 8к3 (в Казино. Только для клиентов Казино)",МТБанк,2.87,2.92,53.894925,27.555714
"г. Калинковичи, ул. 50 лет Октября, 83/2",МТБанк,2.87,2.92,52.123677,29.308309
"г. Минск, ул. Радиальная 38А",Приорбанк,2.88,2.92,53.891583814184,27.647177183853
"г. Минск, ул. Тимирязева 65А",Приорбанк,2.88,2.92,53.923436,27.510499
"г. Минск, ул. Логойский тракт 15 /1",Приорбанк,2.88,2.92,53.9426,27.607987
"г. Минск, ул. Притыцкого 91",Приорбанк,2.88,2.92,53.906066414632,27.442761809769
"г. Минск, ул. Немига 30",Приорбанк,2.88,2.92,53.90162,27.54756
"г. Минск, пр-т Партизанский 107",Приорбанк,2.88,2.92,53.8693,27.65017
"г. Минск, ул. Кропоткина 91А",Приорбанк,2.88,2.92,53.922314,27.558154
"г. Минск, пр-т Дзержинского 104",Приорбанк,2.88,2.92,53.861773,27.48014
"г. Минск, пр-т Дзержинского 126",Приорбанк,2.88,2.92,53.84748,27.47101
"г. Минск, пр-т Рокоссовского 80",Приорбанк,2.88,2.92,53.8631,27.603939
"г. Минск, ул. Игуменский тракт 30",Приорбанк,2.88,2.92,53.840385,27.572496
"г. Минск, пр-т Дзержинского 122",Приорбанк,2.88,2.92,53.851473,27.474399
"г. Минск, пр-т Партизанский 150А",Приорбанк,2.88,2.92,53.859605,27.674022
"г. Минск, ул. Петра Мстиславца 13",Приорбанк,2.88,2.92,53.934425,27.65513
"г. Минск, пр-т Независимости 168 /2",Приорбанк,2.88,2.92,53.94521,27.69047
"г. Минск, ул. Трудовая 10",Приорбанк,2.88,2.92,53.865855,27.655687
"г. Минск, пр-т Дзержинского, 91 (ТЦ Алми)",Банк РРБ,2.83,2.92,53.859557,27.481926
"г. Минск, ул. Одинцова, 65 (ТЦ Гиппо)",Банк РРБ,2.83,2.92,53.89995,27.441304
"г. Минск, ул. Городецкая, 30 (ТЦ Гиппо)",Банк РРБ,2.83,2.92,53.94742,27.678109
"г. Минск, ул. Тимирязева, 127 (1 этаж в здании паркинга)",Цептер Банк,2.87,2.92,53.938063,27.443257
"г. Минск, ул. Платонова, 1 Б",Цептер Банк,2.87,2.92,53.904181,27.588627
"г. Минск, ул. Тимирязева, 127, 1 этаж (гипермаркет «MILE»)",Цептер Банк,2.87,2.92,53.938290280435,27.443795484458
"г. Минск, ул. Немига, 12Б-2",Цептер Банк,2.87,2.92,53.902379,27.54857
"г. Минск, пр. Дзержинского, 69",Беларусбанк,2.88,2.925,53.865233,27.487967
"г. Минск, пр. Любимова, 30",Беларусбанк,2.88,2.925,53.86315,27.460883
"г. Минск, ул. Слободская, 135",Беларусбанк,2.88,2.925,53.845367,27.457083
"г. Минск, ул. Романовская Слобода, 9",Беларусбанк,2.88,2.925,53.90364,27.5437
"г. Минск, ул. Уманская, 54",Беларусбанк,2.88,2.925,53.874717,27.498517
"г. Минск, пр. Независимости, 11",Беларусбанк,2.88,2.925,53.897383,27.54935
"г. Минск, ул. Кальварийская, 24",Беларусбанк,2.88,2.925,53.90805,27.527333
"г. Минск, пр. Любимова, 41",Беларусбанк,2.88,2.925,53.86395,27.453402
"г. Минск, ул. Киселева, 17",Беларусбанк,2.88,2.925,53.912272,27.568829
"г. Минск, ул. Ленина, 5",Беларусбанк,2.88,2.925,53.901515,27.558426
"г. Минск, бул. Шевченко, 12",Беларусбанк,2.88,2.925,53.925455,27.556351
"г. Минск, ул. Ольшевского, 1",Беларусбанк,2.88,2.925,53.91294,27.504348
"г. Минск, ул. Жудро, 59",Беларусбанк,2.88,2.925,53.920717,27.479567
"г. Минск, ул. Пономаренко, 41",Беларусбанк,2.88,2.925,53.892969,27.488872
"г. Минск, ул. Бурдейного, 13",Беларусбанк,2.88,2.925,53.903767,27.454617
"г. Минск, ул. Одинцова, 36",Беларусбанк,2.88,2.925,53.902591,27.436229
"г. Минск, пр. Победителей, 75",Беларусбанк,2.88,2.925,53.931111,27.50901
"г. Минск, ул. Притыцкого, 78",Беларусбанк,2.88,2.925,53.90704,27.44662
"г. Минск, ул. Сухаревская, 8",Беларусбанк,2.88,2.925,53.88465,27.438833
"г. Минск, ул. Будславская, 2",Беларусбанк,2.88,2.925,53.959267,27.537633
"г. Минск, ул. Лобанка, 94",Беларусбанк,2.88,2.925,53.886483,27.427883
"г. Минск, ул. Одинцова, 113",Беларусбанк,2.88,2.925,53.900917,27.427517
"г. Минск, ул. Сухаревская, 62",Беларусбанк,2.88,2.925,53.888733,27.422383
"г. Минск, ул. Одинцова, 9",Беларусбанк,2.88,2.925,53.898167,27.456317
"г. Минск, ул. Кунцевщина, 13",Беларусбанк,2.88,2.925,53.910813,27.434818
"г. Минск, ул. Долгобродская, 1",Беларусбанк,2.88,2.925,53.903433,27.6007
"г. Минск, ул. Ангарская, 40",Беларусбанк,2.88,2.925,53.871956,27.684634
"г. Минск, ул. Жилуновича, 26",Беларусбанк,2.88,2.925,53.869667,27.626967
"г. Минск, ул. Уборевича, 72",Беларусбанк,2.88,2.925,53.838794,27.650306
"г. Минск, пр. Партизанский, 110",Беларусбанк,2.88,2.925,53.867233,27.653367
"г. Минск, ул. Голодеда, 61",Беларусбанк,2.88,2.925,53.839531,27.618672
"г. Минск, ул. Уборевича, 26",Беларусбанк,2.88,2.925,53.845583,27.643533
"г. Минск, ул. Голодеда, 31",Беларусбанк,2.88,2.925,53.838794,27.650306
"г. Минск, ул. Жилуновича, 12",Беларусбанк,2.88,2.925,53.873171,27.628881
"г. Минск, ул. Шишкина, 26",Беларусбанк,2.88,2.925,53.858915,27.634108
"г. Минск, ул. Нестерова, 51",Беларусбанк,2.88,2.925,53.884857,27.684229
"г. Минск, ул. Охотская, 135",Беларусбанк,2.88,2.925,53.880292,27.668523
"г. Минск, ул. Уральская, 16",Беларусбанк,2.88,2.925,53.902417,27.617283
"г. Минск, ул. Солтыса, 54",Беларусбанк,2.88,2.925,53.895348,27.653486
"г. Минск, ул. Ванеева, 18",Беларусбанк,2.88,2.925,53.881983,27.6121
"г. Минск, ул. Слесарная, 4",Беларусбанк,2.88,2.925,53.8981,27.579717
"г. Минск, пр. Партизанский, 26",Беларусбанк,2.88,2.925,53.878067,27.607083
"г. Минск, пр. Рокоссовского, 1",Беларусбанк,2.88,2.925,53.874691,27.598065
"г. Минск, ул. Фабричная, 23",Беларусбанк,2.88,2.925,53.8864,27.590267
"г. Минск, пр. Партизанский, 23",Беларусбанк,2.88,2.925,53.883724,27.594003
"г. Минск, ул. Плеханова, 42",Беларусбанк,2.88,2.925,53.863991,27.608624
"г. Минск, ул. Плеханова, 72",Беларусбанк,2.88,2.925,53.859217,27.591833
"г. Минск, пр. Рокоссовского, 33",Беларусбанк,2.88,2.925,53.869929,27.603025
"г. Минск, ул. Игуменский тракт, 42",Беларусбанк,2.88,2.925,53.83656,27.573748
"г. Минск, ул. Игуменский тракт, 20",Беларусбанк,2.88,2.925,53.843883,27.569517
"г. Минск, пр. Партизанский, 147",Беларусбанк,2.88,2.925,53.864723,27.666821
"г. Минск, ул. Сурганова, 47",Беларусбанк,2.88,2.925,53.927783,27.586583
"г. Минск, пр. Независимости, 169",Беларусбанк,2.88,2.925,53.9441,27.66605
"г. Минск, ул. Сурганова, 66",Беларусбанк,2.88,2.925,53.930267,27.582433
"г. Минск, ул. Логойский тракт, 27",Беларусбанк,2.88,2.925,53.952717,27.617817
"г. Минск, пр. Машерова, 16",Беларусбанк,2.88,2.925,53.91525,27.574133
"г. Минск, ул. Мирошниченко, 1",Беларусбанк,2.88,2.925,53.958743,27.605336
"г. Минск, пр. Машерова, 54",Беларусбанк,2.88,2.925,53.91785,27.558059
"г. Минск, ул. Гамарника, 16",Беларусбанк,2.88,2.925,53.957433,27.61505
"г. Минск, ул. Куйбышева, 75",Беларусбанк,2.88,2.925,53.923424,27.579106
"г. Минск, ул. Маяковского, 8",Беларусбанк,2.88,2.925,53.883585,27.56705
"г. Минск, ул. Полевая, 12",Беларусбанк,2.88,2.925,53.874267,27.567317
"г. Минск, ул. Воронянского, 7А",Беларусбанк,2.88,2.925,53.878297,27.543068
"г. Минск, ул. Асаналиева, 40Б",Беларусбанк,2.88,2.925,53.850826,27.545623
"г. Минск, пр. Независимости, 3",Беларусбанк,2.88,2.925,53.895679,27.548516
"г. Минск, ул. Кирова, 2",Беларусбанк,2.88,2.925,53.89189,27.551887
"г. Минск, ул. Брестская, 77А",Беларусбанк,2.88,2.925,53.8555,27.521433
"г. Минск, пл. Привокзальная, 5",Беларусбанк,2.88,2.925,53.89105,27.550063
"г. Минск, пр. Независимости, 3",Беларусбанк,2.88,2.925,53.896241,27.54882
"г. Минск, пр. Независимости, 56",Беларусбанк,2.88,2.925,53.917048,27.587138
"г. Минск, ул. Высокая, 11д",Беларусбанк,2.88,2.925,53.914973,27.67604
"г. Минск, пр. Независимости, 91",Беларусбанк,2.88,2.925,53.923644,27.608951
"г. Минск, пр. Независимости, 103",Беларусбанк,2.88,2.925,53.928104,27.626617
"г. Минск, ул. Водолажского, 4",Беларусбанк,2.88,2.925,53.944097,27.706397
"г. Минск, ул. Калиновского, 55",Беларусбанк,2.88,2.925,53.947129,27.629771
"г. Минск, ул. Славинского, 41",Беларусбанк,2.88,2.925,53.938723,27.640413
"г. Минск, ул. Карбышева, 1",Беларусбанк,2.88,2.925,53.955683,27.62405
"г. Минск, ул. Руссиянова, 36",Беларусбанк,2.88,2.925,53.935836,27.688671
"г. Минск, ул. Руссиянова, 9",Беларусбанк,2.88,2.925,53.938573,27.684051
"г. Минск, пр. Независимости, 154",Беларусбанк,2.88,2.925,53.936102,27.67365
"г. Минск, пр. Независимости, 179",Беларусбанк,2.88,2.925,53.946183,27.687985
"г. Минск, ул. Бобруйская, 6",Беларусбанк,2.88,2.925,53.890237,27.554304
"г. Минск, ул. Матусевича, 76",Беларусбанк,2.88,2.925,53.917883,27.447283
"г. Минск, пр. Дзержинского, 119",Беларусбанк,2.88,2.925,53.849833,27.476133
"г. Минск, ул. Лидская, 14",Беларусбанк,2.88,2.925,53.922083,27.431317
"г. Минск, пр. Дзержинского, 131",Беларусбанк,2.88,2.925,53.84525,27.474
"г. Минск, ул. Неманская, 35",Беларусбанк,2.88,2.925,53.9142,27.426017
"г. Минск, ул. Селицкого, 71",Беларусбанк,2.88,2.925,53.83785,27.703233
"г. Минск, ул. Долгиновский тракт, 178",Беларусбанк,2.88,2.925,53.964215,27.535861
"г. Минск, ул. Авроровская, 8",Беларусбанк,2.88,2.925,53.861371,27.566069
"г. Минск, пр. Независимости, 66",Беларусбанк,2.88,2.925,53.920504,27.598401
"г. Минск, ул. Корженевского, 26",Беларусбанк,2.88,2.925,53.842567,27.529083
"г. Минск, ул. В.Хоружей, 8",Беларусбанк,2.88,2.925,53.920093,27.577743
"г. Минск, пр. Газеты Правда, 20А",Беларусбанк,2.88,2.925,53.867676,27.483974
"г. Минск, ул. Есенина, 16",Беларусбанк,2.88,2.925,53.850162,27.463528
"г. Минск, ул. Р.Люксембург, 99",Беларусбанк,2.88,2.925,53.891483,27.52095
"г. Минск, пр. Газеты Звязда, 55",Беларусбанк,2.88,2.925,53.858463,27.463196
"г. Минск, ул. Янки Брыля, 30",Беларусбанк,2.88,2.925,53.8798,27.484833
"г. Минск, ул. В.Хоружей, 46",Беларусбанк,2.88,2.925,53.92345,27.553183
"г. Минск, ул. Берута, 24",Беларусбанк,2.88,2.925,53.899117,27.506067
"г. Минск, ул. П.Глебки, 2",Беларусбанк,2.88,2.925,53.908817,27.47385
"г. Минск, ул. П.Глебки, 118",Беларусбанк,2.88,2.925,53.927417,27.4816
"г. Минск, 2-ой пер. Багратиона, 20",Беларусбанк,2.88,2.925,53.908004,27.626123
"г. Минск, ул. Красина, 25",Беларусбанк,2.88,2.925,53.825756,27.765032
"г. Минск, ул. О.Кошевого, 18",Беларусбанк,2.88,2.925,53.886083,27.60655
"г. Минск, ул. Шпилевского, 54",Беларусбанк,2.88,2.925,53.847015,27.56352
"г. Минск, ул. Бачило, 32",Беларусбанк,2.88,2.925,53.873171,27.628881
"г. Минск, ул. Л.Беды, 19",Беларусбанк,2.88,2.925,53.932506,27.588942
"г. Минск, ул. Я.Коласа, 47",Беларусбанк,2.88,2.925,53.929176,27.596829
"г. Минск, ул. М.Богдановича, 78",Беларусбанк,2.88,2.925,53.9274,27.573733
"г. Минск, ул. В.Хоружей, 24",Беларусбанк,2.88,2.925,53.92255,27.565633
"г. Минск, Территория Национального аэропорта «Минск»",Беларусбанк,2.88,2.925,53.88945,28.034267
"г. Минск, ул. Карла Маркса, 8",Беларусбанк,2.88,2.925,53.89189,27.551887
"г. Минск, ул. Чкалова, 1",Беларусбанк,2.88,2.925,53.881505,27.537088
"г. Минск, ул. Льва Толстого, 4",Беларусбанк,2.88,2.925,53.889533,27.54285
"г. Минск, ул. Я.Коласа, 12",Беларусбанк,2.88,2.925,53.920498,27.588561
"г. Минск, ул. Корженевского, 10",Беларусбанк,2.88,2.925,53.844794,27.50262
"г. Минск, ул. Фогеля, 1В",Беларусбанк,2.88,2.925,53.960809,27.736565
"г. Минск, ул. М.Танка, 34",Беларусбанк,2.88,2.925,53.90875,27.5315
"г. Минск, пр. Рокоссовского, 114",Беларусбанк,2.88,2.925,53.8577,27.6083
"г. Минск, ул. Логойский тракт, 1",Беларусбанк,2.88,2.925,53.9405,27.605533
"г. Минск, ул. Жуковского, 6",Беларусбанк,2.88,2.925,53.882307,27.549886
"г. Минск, ул. Лейтенанта Кижеватова, 80",Беларусбанк,2.88,2.925,53.844109,27.532543
"г. Минск, пр. Пушкина, 75",Беларусбанк,2.88,2.925,53.918625,27.495275
"г. Минск, ул. Мясникова, 32",Беларусбанк,2.88,2.925,53.898126,27.542521
"г. Минск, пр. Независимости, 155",Беларусбанк,2.88,2.925,53.93513,27.650785
"г. Минск, ул. Гинтовта, 14",Беларусбанк,2.88,2.925,53.948374,27.671785
"г. Минск, пл. Привокзальная, 5",Беларусбанк,2.88,2.925,53.890649,27.550707
"г. Минск, пр. Независимости, 44",Беларусбанк,2.88,2.925,53.91116,27.578958
"г. Минск, пр. Дзержинского, 18",Беларусбанк,2.88,2.925,53.890496,27.522425
"г. Минск, ул. Красноармейская, 36",Беларусбанк,2.88,2.925,53.892224,27.578622
"г. Минск, ул. Слободская, 15",Беларусбанк,2.88,2.925,53.86105,27.4296
"г. Минск, ул. Нарочанская, 4",Беларусбанк,2.88,2.925,53.934605,27.477839
"г. Минск, ул. Игоря Лученка, 1",Беларусбанк,2.88,2.925,53.869969,27.538241
"г. Минск, улица Тимирязева 114",Паритетбанк,2.885,2.925,53.93451,27.457473
"г. Минск, улица Тимирязева 114",Паритетбанк,2.885,2.925,53.934344,27.457843
"г. Минск, улица Тимирязева 114",Паритетбанк,2.885,2.925,53.934174,27.457803
"г. Минск, улица Тимирязева 114",Паритетбанк,2.885,2.925,53.934342,27.458336
"г. Минск, улица Тимирязева 114",Паритетбанк,2.885,2.925,53.93411,27.458438
"г. Минск, улица Тимирязева 125/14",Паритетбанк,2.885,2.925,53.936009,27.449164
"г. Минск, улица Никифорова 51",Паритетбанк,2.885,2.925,53.942615,27.698056
"г. Минск, улица Никифорова 51",Паритетбанк,2.885,2.925,53.942717,27.698148
"г. Минск, Дунина-Марцинкевича 11-2",Паритетбанк,2.885,2.925,53.907959,27.492293
"г. Минск, Дунина-Марцинкевича 11-2",Паритетбанк,2.885,2.925,53.907864,27.491736
"г. Минск, Минский район, Щомыслицкий сельсовет, 32, корпус 4 (ТЦ DiaMond city)",Банк РРБ,2.88,2.925,53.84961,27.43357
"г. Минск, ул. Веры Хоружей, 8 (Комаровский рынок)",Банк РРБ,2.859,2.925,53.91977,27.577381
"г. Минск, Проспект Победителей, 91",Белагропромбанк,2.885,2.927,53.933312,27.502402
"г. Минск, улица Романовская Слобода, 8",Белагропромбанк,2.885,2.927,53.90278,27.54667
"г. Минск, улица Ольшевского, 24",Белагропромбанк,2.885,2.927,53.920163,27.499434
"Минский р-н, Боровлянский с/с, 74/1, р-н д. Боровая",Белагропромбанк,2.882,2.929,53.963663,27.624295
"г. Минск, улица Логойский тракт, 22а",Белагропромбанк,2.882,2.929,53.94697,27.61567
"г. Минск, улица Маяковского, 154",Белагропромбанк,2.882,2.929,53.86967,27.569027
"г. Минск, тракт Игуменский, 16",Белагропромбанк,2.882,2.929,53.844978,27.568362
"г. Минск, проспект Партизанский, 52",Белагропромбанк,2.882,2.929,53.874583,27.627669
"г. Минск, улица Уборевича, 176",Белагропромбанк,2.882,2.929,53.835537,27.605956
"г. Минск, Ул. Воронянского, 40",Белагропромбанк,2.882,2.929,53.877557,27.545711
"г. Минск, улица Рафиева, 88а",Белагропромбанк,2.882,2.929,53.859839,27.436728
"г. Минск, улица Железнодорожная, 44",Белагропромбанк,2.882,2.929,53.880469,27.519251
"г. Минск, улица К.Маркса, 15",Белагропромбанк,2.882,2.929,53.896951,27.553865
"г. Минск, улица Лобанка, 79",Белагропромбанк,2.882,2.929,53.888961,27.42897
"г. Минск, улица Р.Люксембург, 80",Белагропромбанк,2.882,2.929,53.89353,27.528378
"г. Минск, улица Шаранговича, 4",Белагропромбанк,2.882,2.929,53.892857,27.458884
"г. Минск, бульвар Шевченко, 11",Белагропромбанк,2.882,2.929,53.927289,27.555561
"г. Минск, улица Куйбышева, 75",Белагропромбанк,2.882,2.929,53.922862,27.577875
"г. Минск, проспект Машерова, 19",Белагропромбанк,2.882,2.929,53.916299,27.562657
"г. Минск, проспект Победителей, 49",Белагропромбанк,2.882,2.929,53.917084,27.533086
"г. Минск, улица Жиновича, 20",Белагропромбанк,2.882,2.929,53.924058,27.443097
"г. Минск, улица Одинцова, 20",Белагропромбанк,2.882,2.929,53.900582,27.446751
"г. Минск, ул. Независимости, 134",Белагропромбанк,2.882,2.929,53.933852,27.658997
"Минск, ул. Корженевского, 26",БНБ-Банк,2.881,2.929,53.842461485295,27.529122304893
"г. Минск, Логойский тракт, 10",Альфа Банк,2.88,2.93,53.941869962673,27.608721415344
"г. Минск, пр-т. Победителей, 5,рядом с ТЦ ""Галерея""",Альфа Банк,2.88,2.93,53.907247983682,27.550936391822
"г. Минск, пр. Независимости, 93",Альфа Банк,2.88,2.93,53.924238099085,27.612239787033
"г. Минск, пр. Независимости, 168/2,рядом с метро ""Уручье""",Альфа Банк,2.88,2.93,53.945257125987,27.690156695106
"г. Минск, пр. Рокоссовского, 80",Альфа Банк,2.88,2.93,53.863703458872,27.604081904041
"г. Минск, ул. Притыцкого, 39,рядом с метро ""Спортивная""",Альфа Банк,2.88,2.93,53.907799283027,27.476225609123
"г. Минск, ул. Сурганова, 43",Альфа Банк,2.88,2.93,53.926804745999,27.589607805557
"г. Минск, пр. Дзержинского,119",Альфа Банк,2.88,2.93,53.850418666218,27.47627608471
"г. Минск, ул. Притыцкого, 97-473",Альфа Банк,2.88,2.93,53.906366913146,27.438174826672
"г. Минск, П. Мстиславца, 9",Альфа Банк,2.88,2.93,53.932819934219,27.649750161377
"г. Минск, ул. Кульман, 5б",Альфа Банк,2.88,2.93,53.919516381249,27.580799968317
"г. Минск, пр. Независимости, 177",Альфа Банк,2.88,2.93,53.945315212631,27.68324604299
"г. Минск, Игуменский тракт, 20",Альфа Банк,2.88,2.93,53.843840002337,27.569656161377
"г. Минск, пр-т. Победителей 108-4",Альфа Банк,2.88,2.93,53.939333234997,27.47768149723
"г. Минск, проспект Победителей, 119, пом. 492",Белагропромбанк,2.875,2.93,53.93814,27.473428
"г. Минск, проспект Победителей, 84-2 ТРЦ ""Арена-Сити""",Белагропромбанк,2.875,2.93,53.9379,27.4885
"Минский р-н, Щомыслицкий с/с, 32/4, ТЦ ""DiaMondcity""",Белагропромбанк,2.875,2.93,53.849604,27.43357
"г. Минск, улица Каменногорская, 118",Белагропромбанк,2.875,2.93,53.933751,27.431989
"Пересечение Логойского тракта и МКАД (ЗАО ВЦ Аквабел), Минский р-н",Белагропромбанк,2.882,2.93,53.96409,27.622791
"г. Минск, улица Уборевича, 176",Белагропромбанк,2.882,2.93,53.835537,27.605956
"г. Минск, улица Наполеона Орды, 6",Белагропромбанк,2.875,2.93,53.842504,27.47773
"г. Минск, улица Ванеева, 38",Белагропромбанк,2.875,2.93,53.876852,27.594451
"г. Минск, ул. Маяковского, 6",Белагропромбанк,2.88,2.93,53.88472,27.565722
"г.Минск, Поселок Лесной, 19а",БСБ Банк,2.88,2.93,54.00445,27.680351
"г.Минск, Шаранговича ул., 25",БСБ Банк,2.88,2.93,53.883475,27.447917
"г.Минск, Каменногорская ул., д.3",БСБ Банк,2.88,2.93,53.910827,27.415176
"г.Минск, Космонавтов ул., 29",БСБ Банк,2.88,2.93,53.849395,27.456922
"г.Минск, Каменногорская ул., д.3",БСБ Банк,2.88,2.93,53.910827,27.415176
"г. Минск, пр-т Победителей, 3",Сбер Банк,2.87,2.93,53.906899555501,27.550586163998
"г. Минск, пр-т Независимости,39",Сбер Банк,2.87,2.93,53.91014,27.57662
"г. Минск, ул.Чкалова,18/1",Сбер Банк,2.87,2.93,53.87908,27.53427
"г. Минск, ул.Петра Мстиславца,13",Сбер Банк,2.87,2.93,53.934590873088,27.654867768288
"г. Минск, бульвар имени Мулявина,6",Сбер Банк,2.87,2.93,53.914152978013,27.584044039249
"г. Минск, ул. Е. Полоцкой, 1",Сбер Банк,2.87,2.93,53.907520524996,27.473963499069
"г. Минск, пр. Дзержинского, 119",Сбер Банк,2.87,2.93,53.850175470055,27.476280927658
"г. Минск, ул.Кальварийская, 4а",Сбер Банк,2.87,2.93,53.905607024504,27.53955155611
"г. Минск, пр-т Независимости, 32А-1 (только для премиальных клиентов)",Сбер Банк,2.87,2.93,53.904679474557,27.56955742836
"г. Минск, пр-т Независимости, 179",Сбер Банк,2.87,2.93,53.946488815116,27.68881380558
"г. Минск, ул. Притыцкого, 156",Сбер Банк,2.87,2.93,53.908054582979,27.4340736866
"г. Минск, ул. Петра Мстиславца, 11",Сбер Банк,2.87,2.93,53.933248668265,27.651568651199
"г. Минск, пр. Партизанский, 150А",Сбер Банк,2.87,2.93,53.859791170128,27.674179673195
"г. Минск, пр-т Независимости, 32А-3",Сбер Банк,2.87,2.93,53.904553060703,27.569931596518
"г. Минск, ул.Маяковского, 6",Сбер Банк,2.87,2.93,53.884951126252,27.564978897572
"г. Минск, пр-т Дзержинского, 26",Сбер Банк,2.87,2.93,53.887640179486,27.515671849251
"г. Минск, пр-т Рокоссовского, 80-6H",Сбер Банк,2.87,2.93,53.863024383968,27.603905797005
"г. Минск, пр-т Партизанский 56",Сбер Банк,2.87,2.93,53.874001842795,27.630950510502
